[{"OBJECT_NAME":"STARLINK-4131","OBJECT_ID":"2022-086E","EPOCH":"2026-03-09T16:44:39.392160","MEAN_MOTION":15.08827767,"ECCENTRICITY":0.00015979,"INCLINATION":53.2187,"RA_OF_ASC_NODE":204.0913,"ARG_OF_PERICENTER":45.235,"MEAN_ANOMALY":314.8772,"EPHEMERIS_TYPE":0,"CLASSIFICATION_TYPE":"U","NORAD_CAT_ID":53246,"ELEMENT_SET_NO":999,"REV_AT_EPOCH":20013,"BSTAR":-5.3472321e-5,"MEAN_MOTION_DOT":-1.139e-5,"MEAN_MOTION_DDOT":0},{"OBJECT_NAME":"CZ-4C R\/B","OBJECT_ID":"2012-066D","EPOCH":"2026-03-09T22:13:57.605952","MEAN_MOTION":13.71953349,"ECCENTRICITY":0.06158717,"INCLINATION":63.3882,"RA_OF_ASC_NODE":348.5087,"ARG_OF_PERICENTER":10.8771,"MEAN_ANOMALY":350.4906,"EPHEMERIS_TYPE":0,"CLASSIFICATION_TYPE":"U","NORAD_CAT_ID":39014,"ELEMENT_SET_NO":999,"REV_AT_EPOCH":66492,"BSTAR":0.00035049571,"MEAN_MOTION_DOT":1.149e-5,"MEAN_MOTION_DDOT":0}]
